[{"OBJECT_NAME":"GRUS-1D","OBJECT_ID":"2021-022E","EPOCH":"2026-03-09T23:44:16.341792","MEAN_MOTION":14.9882754,"ECCENTRICITY":0.00122189,"INCLINATION":97.5533,"RA_OF_ASC_NODE":315.589,"ARG_OF_PERICENTER":289.6697,"MEAN_ANOMALY":70.3207,"EPHEMERIS_TYPE":0,"CLASSIFICATION_TYPE":"U","NORAD_CAT_ID":47936,"ELEMENT_SET_NO":999,"REV_AT_EPOCH":27104,"BSTAR":0.00015470185,"MEAN_MOTION_DOT":1.811e-5,"MEAN_MOTION_DDOT":0},{"OBJECT_NAME":"STARLINK-5991","OBJECT_ID":"2023-058Q","EPOCH":"2026-03-09T23:40:13.159488","MEAN_MOTION":15.01258137,"ECCENTRICITY":0.00016782,"INCLINATION":97.6036,"RA_OF_ASC_NODE":70.4805,"ARG_OF_PERICENTER":92.4782,"MEAN_ANOMALY":267.6635,"EPHEMERIS_TYPE":0,"CLASSIFICATION_TYPE":"U","NORAD_CAT_ID":56331,"ELEMENT_SET_NO":999,"REV_AT_EPOCH":15817,"BSTAR":-8.5881e-6,"MEAN_MOTION_DOT":-1.69e-6,"MEAN_MOTION_DDOT":0}]
